[
    {
        "Altitude(m)": 717864.6105049535,
        "Argument of Periapsis(deg)": 0.010251109067964361,
        "Eccentricity": 0.0,
        "Inclination(deg)": 45.0,
        "Latitude(deg)": -45.1117790519285,
        "Longitude(deg)": -122.57812131268601,
        "Mean Anomaly(deg)": 272.19809498273275,
        "RAAN(deg)": 64.99032325268762,
        "Satellite Name": "Constellation 1 302",
        "Satellite Number": 302,
        "Semi-Major Axis(m)": 7083131.272910544,
        "Time(s)": 171
    },
    {
        "Altitude(m)": 717863.6309507103,
        "Argument of Periapsis(deg)": 0.010311057074209765,
        "Eccentricity": 0.0,
        "Inclination(deg)": 45.0,
        "Latitude(deg)": -45.109416719022455,
        "Longitude(deg)": -122.49672246841355,
        "Mean Anomaly(deg)": 272.2587961229827,
        "RAAN(deg)": 64.99026666352205,
        "Satellite Name": "Constellation 1 302",
        "Satellite Number": 302,
        "Semi-Major Axis(m)": 7083131.272910544,
        "Time(s)": 172
    },
    {
        "Altitude(m)": 717862.6250577817,
        "Argument of Periapsis(deg)": 0.010371005080455171,
        "Eccentricity": 0.0,
        "Inclination(deg)": 45.0,
        "Latitude(deg)": -45.106990397762225,
        "Longitude(deg)": -122.41533075802946,
        "Mean Anomaly(deg)": 272.31949726323256,
        "RAAN(deg)": 64.99021007435647,
        "Satellite Name": "Constellation 1 302",
        "Satellite Number": 302,
        "Semi-Major Axis(m)": 7083131.272910544,
        "Time(s)": 173
    },
    {
        "Altitude(m)": 717861.5928298534,
        "Argument of Periapsis(deg)": 0.010430953086700577,
        "Eccentricity": 0.0,
        "Inclination(deg)": 45.0,
        "Latitude(deg)": -45.10450009885399,
        "Longitude(deg)": -122.33394637093271,
        "Mean Anomaly(deg)": 272.38019840348244,
        "RAAN(deg)": 64.9901534851909,
        "Satellite Name": "Constellation 1 302",
        "Satellite Number": 302,
        "Semi-Major Axis(m)": 7083131.272910544,
        "Time(s)": 174
    },
    {
        "Altitude(m)": 717860.5342707266,
        "Argument of Periapsis(deg)": 0.010490901092945983,
        "Eccentricity": 0.0,
        "Inclination(deg)": 45.0,
        "Latitude(deg)": -45.10194583328386,
        "Longitude(deg)": -122.25256949639132,
        "Mean Anomaly(deg)": 272.4408995437323,
        "RAAN(deg)": 64.99009689602535,
        "Satellite Name": "Constellation 1 302",
        "Satellite Number": 302,
        "Semi-Major Axis(m)": 7083131.272910544,
        "Time(s)": 175
    },
    {
        "Altitude(m)": 717859.4493842869,
        "Argument of Periapsis(deg)": 0.010550849099191389,
        "Eccentricity": 0.0,
        "Inclination(deg)": 45.0,
        "Latitude(deg)": -45.099327612317666,
        "Longitude(deg)": -122.17120032354009,
        "Mean Anomaly(deg)": 272.50160068398225,
        "RAAN(deg)": 64.99004030685977,
        "Satellite Name": "Constellation 1 302",
        "Satellite Number": 302,
        "Semi-Major Axis(m)": 7083131.272910544,
        "Time(s)": 176
    },
    {
        "Altitude(m)": 717858.3381745266,
        "Argument of Periapsis(deg)": 0.010610797105436795,
        "Eccentricity": 0.0,
        "Inclination(deg)": 45.0,
        "Latitude(deg)": -45.09664544750071,
        "Longitude(deg)": -122.08983904137708,
        "Mean Anomaly(deg)": 272.5623018242322,
        "RAAN(deg)": 64.9899837176942,
        "Satellite Name": "Constellation 1 302",
        "Satellite Number": 302,
        "Semi-Major Axis(m)": 7083131.272910544,
        "Time(s)": 177
    },
    {
        "Altitude(m)": 717857.2006455258,
        "Argument of Periapsis(deg)": 0.0106707451116822,
        "Eccentricity": 0.0,
        "Inclination(deg)": 45.0,
        "Latitude(deg)": -45.0938993506574,
        "Longitude(deg)": -122.00848600685643,
        "Mean Anomaly(deg)": 272.62300296448205,
        "RAAN(deg)": 64.98992712852862,
        "Satellite Name": "Constellation 1 302",
        "Satellite Number": 302,
        "Semi-Major Axis(m)": 7083131.272910544,
        "Time(s)": 178
    },
    {
        "Altitude(m)": 717856.0368014727,
        "Argument of Periapsis(deg)": 0.010730693117927606,
        "Eccentricity": 0.0,
        "Inclination(deg)": 45.0,
        "Latitude(deg)": -45.091089333891674,
        "Longitude(deg)": -121.92714107249775,
        "Mean Anomaly(deg)": 272.68370410473193,
        "RAAN(deg)": 64.98987053936307,
        "Satellite Name": "Constellation 1 302",
        "Satellite Number": 302,
        "Semi-Major Axis(m)": 7083131.272910544,
        "Time(s)": 179
    },
    {
        "Altitude(m)": 717854.8466466393,
        "Argument of Periapsis(deg)": 0.01079064112417301,
        "Eccentricity": 0.0,
        "Inclination(deg)": 45.0,
        "Latitude(deg)": -45.08821540958559,
        "Longitude(deg)": -121.84580459496459,
        "Mean Anomaly(deg)": 272.74440524498186,
        "RAAN(deg)": 64.98981395019749,
        "Satellite Name": "Constellation 1 302",
        "Satellite Number": 302,
        "Semi-Major Axis(m)": 7083131.272910544,
        "Time(s)": 180
    },
    {
        "Altitude(m)": 717853.630185407,
        "Argument of Periapsis(deg)": 0.010850589130418416,
        "Eccentricity": 0.0,
        "Inclination(deg)": 45.0,
        "Latitude(deg)": -45.085277590399976,
        "Longitude(deg)": -121.7644767626738,
        "Mean Anomaly(deg)": 272.80510638523174,
        "RAAN(deg)": 64.98975736103192,
        "Satellite Name": "Constellation 1 302",
        "Satellite Number": 302,
        "Semi-Major Axis(m)": 7083131.272910544,
        "Time(s)": 181
    },
    {
        "Altitude(m)": 717852.3874222451,
        "Argument of Periapsis(deg)": 0.01091053713666382,
        "Eccentricity": 0.0,
        "Inclination(deg)": 45.0,
        "Latitude(deg)": -45.08227588927378,
        "Longitude(deg)": -121.68315776388839,
        "Mean Anomaly(deg)": 272.8658075254816,
        "RAAN(deg)": 64.98970077186635,
        "Satellite Name": "Constellation 1 302",
        "Satellite Number": 302,
        "Semi-Major Axis(m)": 7083131.272910544,
        "Time(s)": 182
    },
    {
        "Altitude(m)": 717851.1183617283,
        "Argument of Periapsis(deg)": 0.010970485142909228,
        "Eccentricity": 0.0,
        "Inclination(deg)": 45.0,
        "Latitude(deg)": -45.079210319423915,
        "Longitude(deg)": -121.60184778671447,
        "Mean Anomaly(deg)": 272.92650866573155,
        "RAAN(deg)": 64.98964418270079,
        "Satellite Name": "Constellation 1 302",
        "Satellite Number": 302,
        "Semi-Major Axis(m)": 7083131.272910544,
        "Time(s)": 183
    },
    {
        "Altitude(m)": 717849.8230085236,
        "Argument of Periapsis(deg)": 0.011030433149154634,
        "Eccentricity": 0.0,
        "Inclination(deg)": 45.0,
        "Latitude(deg)": -45.07608089434495,
        "Longitude(deg)": -121.52054701909806,
        "Mean Anomaly(deg)": 272.9872098059815,
        "RAAN(deg)": 64.98958759353522,
        "Satellite Name": "Constellation 1 302",
        "Satellite Number": 302,
        "Semi-Major Axis(m)": 7083131.272910544,
        "Time(s)": 184
    },
    {
        "Altitude(m)": 717848.5013673992,
        "Argument of Periapsis(deg)": 0.01109038115540004,
        "Eccentricity": 0.0,
        "Inclination(deg)": 45.0,
        "Latitude(deg)": -45.072887627808655,
        "Longitude(deg)": -121.43925581691933,
        "Mean Anomaly(deg)": 273.04791094623135,
        "RAAN(deg)": 64.98953100436964,
        "Satellite Name": "Constellation 1 302",
        "Satellite Number": 302,
        "Semi-Major Axis(m)": 7083131.272910544,
        "Time(s)": 185
    },
    {
        "Altitude(m)": 717847.1534432054,
        "Argument of Periapsis(deg)": 0.011150329161645444,
        "Eccentricity": 0.0,
        "Inclination(deg)": 45.0,
        "Latitude(deg)": -45.069630533864476,
        "Longitude(deg)": -121.35797403159987,
        "Mean Anomaly(deg)": 273.10861208648123,
        "RAAN(deg)": 64.98947441520407,
        "Satellite Name": "Constellation 1 302",
        "Satellite Number": 302,
        "Semi-Major Axis(m)": 7083131.272910544,
        "Time(s)": 186
    },
    {
        "Altitude(m)": 717845.7792409152,
        "Argument of Periapsis(deg)": 0.01121027716789085,
        "Eccentricity": 0.0,
        "Inclination(deg)": 45.0,
        "Latitude(deg)": -45.06630962683803,
        "Longitude(deg)": -121.27670201868301,
        "Mean Anomaly(deg)": 273.16931322673116,
        "RAAN(deg)": 64.98941782603852,
        "Satellite Name": "Constellation 1 302",
        "Satellite Number": 302,
        "Semi-Major Axis(m)": 7083131.272910544,
        "Time(s)": 187
    },
    {
        "Altitude(m)": 717844.3787655783,
        "Argument of Periapsis(deg)": 0.011270225174136258,
        "Eccentricity": 0.0,
        "Inclination(deg)": 45.0,
        "Latitude(deg)": -45.06292492133161,
        "Longitude(deg)": -121.19543996544192,
        "Mean Anomaly(deg)": 273.23001436698104,
        "RAAN(deg)": 64.98936123687294,
        "Satellite Name": "Constellation 1 302",
        "Satellite Number": 302,
        "Semi-Major Axis(m)": 7083131.272910544,
        "Time(s)": 188
    },
    {
        "Altitude(m)": 717842.9520223462,
        "Argument of Periapsis(deg)": 0.011330173180381662,
        "Eccentricity": 0.0,
        "Inclination(deg)": 45.0,
        "Latitude(deg)": -45.05947643222374,
        "Longitude(deg)": -121.11418805897341,
        "Mean Anomaly(deg)": 273.29071550723097,
        "RAAN(deg)": 64.98930464770737,
        "Satellite Name": "Constellation 1 302",
        "Satellite Number": 302,
        "Semi-Major Axis(m)": 7083131.272910544,
        "Time(s)": 189
    }
]